[{"OBJECT_NAME":"HAIYANG-2D","OBJECT_ID":"2021-043A","EPOCH":"2026-03-09T23:01:37.583328","MEAN_MOTION":13.8337425,"ECCENTRICITY":0.00105603,"INCLINATION":65.9986,"RA_OF_ASC_NODE":191.7425,"ARG_OF_PERICENTER":278.687,"MEAN_ANOMALY":81.3002,"EPHEMERIS_TYPE":0,"CLASSIFICATION_TYPE":"U","NORAD_CAT_ID":48621,"ELEMENT_SET_NO":999,"REV_AT_EPOCH":24282,"BSTAR":4.3398589e-5,"MEAN_MOTION_DOT":-3.3e-7,"MEAN_MOTION_DDOT":0},{"OBJECT_NAME":"COSMOS 1091","OBJECT_ID":"1979-028A","EPOCH":"2026-03-09T22:32:33.353952","MEAN_MOTION":13.74911662,"ECCENTRICITY":0.00316707,"INCLINATION":82.9245,"RA_OF_ASC_NODE":206.9977,"ARG_OF_PERICENTER":81.1045,"MEAN_ANOMALY":41.409,"EPHEMERIS_TYPE":0,"CLASSIFICATION_TYPE":"U","NORAD_CAT_ID":11320,"ELEMENT_SET_NO":999,"REV_AT_EPOCH":35349,"BSTAR":6.6663112e-5,"MEAN_MOTION_DOT":7.9e-7,"MEAN_MOTION_DDOT":0}]
